#aV2023  9 12  0  0  0.00000000     288 DD+AD WGS84 FIT  NGA
## 2279 172800.00000000   300.00000000 60199 0.0000000000000
+   32     1  2  3  4  5  6  7  8  9 10 11 12 13 14 15 16 17
+         18 19 20 21 22 23 24 25 26 27 28 29 30 31 32  0  0
+          0  0  0  0  0  0  0  0  0  0  0  0  0  0  0  0  0
+          0  0  0  0  0  0  0  0  0  0  0  0  0  0  0  0  0
+          0  0  0  0  0  0  0  0  0  0  0  0  0  0  0  0  0
++         2  2  2  2  2  2  2  2  2  2  2  2  2  2  2  2  2
++         2  2  2  2  2  2  2  2  2  2  2  2  2  2  2  0  0
++         0  0  0  0  0  0  0  0  0  0  0  0  0  0  0  0  0
++         0  0  0  0  0  0  0  0  0  0  0  0  0  0  0  0  0
++         0  0  0  0  0  0  0  0  0  0  0  0  0  0  0  0  0
%c cc cc ccc ccc cccc cccc cccc cccc ccccc ccccc ccccc ccccc
%c cc cc ccc ccc cccc cccc cccc cccc ccccc ccccc ccccc ccccc
%f  0.0000000  0.000000000  0.00000000000  0.000000000000000
%f  0.0000000  0.000000000  0.00000000000  0.000000000000000
%i    0    0    0    0      0      0      0      0         0
%i    0    0    0    0      0      0      0      0         0
/*      NGA, ST. LOUIS,MO.                                  
/*   EPHEMERIS COMPUTED FROM 2 DAYS OF DATA                 
/*   EPOCHA v8 SMOOTHER                                     
/*   G2139 IERS2010 SATIGS SATAPC                           
*  2023  9 12 16 45  0.00000000
P  1 -14062.125760  21993.163078  -4111.407526    165.662683                    
V  1  -4635.657471   2477.257067  32065.069433     -0.009186                    
P  2 -16787.322112  20007.066297   4795.001880   -554.767309                    
V  2    760.965308  -6029.446996  31250.359276      0.044387                    
P  3  -9971.058169  12932.034526 -21068.714803   -138.980929                    
V  3 -26067.428234  -4151.157194   9964.078741      0.202970                    
P  4  -3104.192705  21572.191644 -15086.839105    153.932592                    
V  4  -8671.347917 -17270.604213 -23016.173415      0.111681                    
P  5  23193.450101  -5961.246445  11412.760152   -142.451385                    
V  5  14492.855776   3424.126786 -27128.473878     -0.014749                    
P  6  14174.142185   5134.114888 -21815.626456    551.454097                    
V  6 -16868.952278  22044.596526  -5666.504963     -0.066984                    
P  7   -162.185907  20396.828910  17223.910150     69.214993                    
V  7 -14558.430927  15532.879304 -19533.166052     -0.105276                    
P  8 -10236.178998  12835.937025  20722.652890   -141.900166                    
V  8 -11851.095855 -23822.473303   9262.758691     -0.018896                    
P  9   5015.760366  24894.418076  -7776.644897    -61.623093                    
V  9  -6493.436378  -7825.870105 -29598.821772      0.102336                    
P 10 -20953.232616 -11129.200831  12447.216270    -53.121823                    
V 10  15438.002963    434.343470  26450.712364     -0.015488                    
P 11  20284.580153  -7520.438562 -15359.443572   -365.375421                    
V 11 -11158.997834  16153.038149 -22674.408129     -0.183332                    
P 12  14368.035135 -11027.117032 -19676.142672   -423.953582                    
V 12  23691.038421   6000.378902  14205.593163     -0.043654                    
P 13  14508.954839  -3453.716373  21784.612832    571.682187                    
V 13   7135.344256  27175.772670   -231.466586      0.045581                    
P 14  17936.283369  13397.465954  14442.235727    182.813495                    
V 14 -18399.125499   -631.274990  23305.583852      0.113809                    
P 15   8153.151960 -14989.677125  19818.191040     76.843410                    
V 15  14752.977410  21936.298177  10515.041267      0.036564                    
P 16 -25669.450559   -446.993350   7355.202247   -455.175844                    
V 16  -8918.834142  -4296.255535 -29679.792345      0.054850                    
P 17  13136.317719  21416.860106  -7997.776191    723.684647                    
V 17   1186.514480  10982.959921  29861.845079      0.002254                    
P 18   -828.660012 -19047.613748  18418.254632   -414.954326                    
V 18  15662.664817 -17454.246310 -17522.541290     -0.126252                    
P 19  15581.876546  15309.924577 -15543.582823    370.551446                    
V 19   4027.623394  18844.647395  22568.411113      0.051701                    
P 20  26424.201426  -1285.559042    274.643326    412.247655                    
V 20    443.212955   3320.391499 -31628.351544     -0.019655                    
P 21 -17539.052743  18052.755585   7360.768982    149.040924                    
V 21   2008.828145  -9258.495259  30474.161602     -0.007445                    
P 22  22354.299064  11321.368363   8831.144892    123.173951                    
V 22 -10977.032120    241.302458  29262.779267     -0.073910                    
P 23  -9316.107065 -14668.059942  20143.381621     67.447723                    
V 23  25431.969858   1703.705250  12836.108376      0.051997                    
P 24  14819.971128 -21695.296069   1302.811728   -317.471396                    
V 24   2279.686501   3953.257283  31374.236416     -0.107412                    
P 25   -994.442418 -15701.934787 -21733.382002    467.378360                    
V 25  26704.929206   2929.668589  -3124.104543      0.020058                    
P 26 -26167.226746  -4267.389073  -3690.552082    228.827541                    
V 26   4697.998815  -3067.994883 -30429.098576     -0.018344                    
P 27 -16005.636665   -614.398333  21003.516447    -38.307457                    
V 27 -10050.987354 -25243.080338  -7896.235353     -0.063197                    
P 28 -13523.794337  -7142.057867 -21737.877945     -8.858266                    
V 28  15811.363604 -22555.358709  -2428.516927     -0.051253                    
P 29  -3060.765309 -25295.169800  -7352.483744   -609.211939                    
V 29   5086.352073   8103.312907 -30286.248305     -0.004539                    
P 30   8677.431410  13977.442608  20933.354552   -488.402801                    
V 30 -16908.705194  20349.188248  -6879.401322      0.033734                    
P 31 -19104.287662   2776.351550 -18605.050613   -223.274941                    
V 31  13442.162474 -18845.496036 -16368.743266     -0.005226                    
P 32 -16181.273354 -17788.370968 -11318.173510   -556.771035                    
V 32  -3581.544991 -14317.267786  26991.203695     -0.061351                    
EOF
